NORAD_CAT_ID,OBJECT_NAME,OBJECT_TYPE,EPOCH,MEAN_MOTION,ECCENTRICITY,INCLINATION,RA_OF_ASC_NODE,ARG_OF_PERICENTER,MEAN_ANOMALY,BSTAR,MEAN_MOTION_DOT,MEAN_MOTION_DDOT,TLE_LINE0,TLE_LINE1,TLE_LINE2,SEMIMAJOR_AXIS,PERIOD,APOGEE,PERIGEE,DECAYED
56475.0,STARLINK-5541,PAYLOAD,2024-08-11 02:32:02,14.98348034,0.000267,70.0007,135.6588,268.5198,91.5655,4.3789e-05,4.3e-06,0.0,0 STARLINK-5541,1 56475U 23064AD  24224.10558893  .00000430  00000-0  43789-4 0  9997,2 56475  70.0007 135.6588 0002670 268.5198  91.5655 14.98348034 69889,6950.137,96.106,573.858,570.146,0.0
56475.0,STARLINK-5541,PAYLOAD,2024-08-11 04:08:10,14.98352941,0.0002736,70.0008,135.4899,269.8815,90.2031,9.669e-05,1.062e-05,0.0,0 STARLINK-5541,1 56475U 23064AD  24224.17234365  .00001062  00000-0  96690-4 0  9990,2 56475  70.0008 135.4899 0002736 269.8815  90.2031 14.98352941 69893,6950.122,96.106,573.889,570.085,0.0
56475.0,STARLINK-5541,PAYLOAD,2024-08-11 21:45:40,14.98323634,0.0002534,70.0003,133.6364,271.481,88.6059,0.00023243,2.681e-05,0.0,0 STARLINK-5541,1 56475U 23064AD  24224.90671958  .00002681  00000-0  23243-3 0  9995,2 56475  70.0003 133.6364 0002534 271.4810  88.6059 14.98323634 69646,6950.213,96.107,573.839,570.316,0.0
56475.0,STARLINK-5541,PAYLOAD,2024-08-12 04:10:11,14.98335451,0.0002531,70.001,132.9658,263.468,96.6191,0.00031636,3.684e-05,0.0,0 STARLINK-5541,1 56475U 23064AD  24225.17374993  .00003684  00000-0  31636-3 0  9993,2 56475  70.0010 132.9658 0002531 263.4680  96.6191 14.98335451 70047,6950.176,96.107,573.8,570.282,0.0
56475.0,STARLINK-5541,PAYLOAD,2024-08-12 10:34:45,14.98330039,0.0001826,70.0039,132.2907,293.1789,66.9177,0.00015899,1.805e-05,0.0,0 STARLINK-5541,1 56475U 23064AD  24225.44079937  .00001805  00000-0  15899-3 0  9999,2 56475  70.0039 132.2907 0001826 293.1789  66.9177 14.98330039 70089,6950.193,96.107,573.327,570.789,0.0
56475.0,STARLINK-5541,PAYLOAD,2024-08-12 21:47:40,14.98339943,0.0002365,70.0014,131.1144,265.9038,94.1851,0.00011926,1.331e-05,0.0,0 STARLINK-5541,1 56475U 23064AD  24225.90811081  .00001331  00000-0  11926-3 0  9995,2 56475  70.0014 131.1144 0002365 265.9038  94.1851 14.98339943 69797,6950.162,96.106,573.671,570.383,0.0
56475.0,STARLINK-5541,PAYLOAD,2024-08-13 04:12:12,14.98351555,0.0002219,70.0029,130.4415,269.6794,90.4111,0.00032386,3.775e-05,0.0,0 STARLINK-5541,1 56475U 23064AD  24226.17514238  .00003775  00000-0  32386-3 0  9996,2 56475  70.0029 130.4415 0002219 269.6794  90.4111 14.98351555 70191,6950.126,96.106,573.533,570.449,0.0
56475.0,STARLINK-5541,PAYLOAD,2024-08-13 10:36:45,14.9831633,0.0002685,70.0015,129.7669,281.6986,78.3872,-0.00051368,-6.214e-05,0.0,0 STARLINK-5541,1 56475U 23064AD  24226.44219842 -.00006214  00000-0 -51368-3 0  9993,2 56475  70.0015 129.7669 0002685 281.6986  78.3872 14.98316330 70238,6950.235,96.108,573.966,570.234,0.0
56475.0,STARLINK-5541,PAYLOAD,2024-08-13 23:25:53,14.98281408,0.0002657,70.0015,128.4215,274.4285,85.6571,-0.00089131,-0.00010698,0.0,0 STARLINK-5541,1 56475U 23064AD  24226.97630940 -.00010698  00000-0 -89131-3 0  9997,2 56475  70.0015 128.4215 0002657 274.4285  85.6571 14.98281408 69953,6950.343,96.11,574.055,570.361,0.0
56475.0,STARLINK-5541,PAYLOAD,2024-08-14 02:38:09,14.98280562,0.0002485,70.0022,128.0854,272.7495,87.338,-0.00081582,-9.801e-05,0.0,0 STARLINK-5541,1 56475U 23064AD  24227.10983411 -.00009801  00000-0 -81582-3 0  9993,2 56475  70.0022 128.0854 0002485 272.7495  87.3380 14.98280562 70330,6950.346,96.11,573.938,570.484,0.0
56475.0,STARLINK-5541,PAYLOAD,2024-08-14 10:38:48,14.98325638,0.0002592,70.0025,127.242,277.4737,82.6127,4.2649e-05,4.16e-06,0.0,0 STARLINK-5541,1 56475U 23064AD  24227.44361533  .00000416  00000-0  42649-4 0  9998,2 56475  70.0025 127.2420 0002592 277.4737  82.6127 14.98325638 70389,6950.206,96.107,573.873,570.27,0.0
56475.0,STARLINK-5541,PAYLOAD,2024-08-14 23:27:52,14.98338317,0.0002982,70.0013,125.8952,268.6523,91.4295,0.00035585,4.156e-05,0.0,0 STARLINK-5541,1 56475U 23064AD  24227.97769042  .00004156  00000-0  35585-3 0  9998,2 56475  70.0013 125.8952 0002982 268.6523  91.4295 14.98338317 70100,6950.167,96.106,574.105,569.96,0.0
56475.0,STARLINK-5541,PAYLOAD,2024-08-15 02:40:08,14.98340948,0.0003537,70.002,125.5587,263.2053,96.8704,0.00078749,9.319e-05,0.0,0 STARLINK-5541,1 56475U 23064AD  24228.11121108  .00009319  00000-0  78749-3 0  9995,2 56475  70.0020 125.5587 0003537 263.2053  96.8704 14.98340948 70483,6950.159,96.106,574.482,569.566,0.0
56475.0,STARLINK-5541,PAYLOAD,2024-08-15 10:40:49,14.98337464,0.0003292,70.0024,124.7158,271.8072,88.271,0.00061585,7.264e-05,0.0,0 STARLINK-5541,1 56475U 23064AD  24228.44501426  .00007264  00000-0  61585-3 0  9993,2 56475  70.0024 124.7158 0003292 271.8072  88.2710 14.98337464 70173,6950.17,96.107,574.323,569.747,0.0
56475.0,STARLINK-5541,PAYLOAD,2024-08-16 02:42:09,14.98340382,0.0003154,70.0006,123.0334,270.105,89.9748,0.00087916,0.00010415,0.0,0 STARLINK-5541,1 56475U 23064AD  24229.11261208  .00010415  00000-0  87916-3 0  9997,2 56475  70.0006 123.0334 0003154 270.1050  89.9748 14.98340382 70279,6950.161,96.106,574.218,569.834,0.0
56475.0,STARLINK-5541,PAYLOAD,2024-08-16 21:55:45,14.98348775,0.0003443,69.9999,121.0126,266.451,93.6255,7.9979e-05,8.62e-06,0.0,0 STARLINK-5541,1 56475U 23064AD  24229.91371889  .00000862  00000-0  79979-4 0  9998,2 56475  69.9999 121.0126 0003443 266.4510  93.6255 14.98348775 70396,6950.135,96.106,574.393,569.607,0.0
56475.0,STARLINK-5541,PAYLOAD,2024-08-17 02:44:09,14.98352489,0.0003127,70.0012,120.5089,269.032,91.0481,0.0001319,1.482e-05,0.0,0 STARLINK-5541,1 56475U 23064AD  24230.11399686  .00001482  00000-0  13190-3 0  9998,2 56475  70.0012 120.5089 0003127 269.0320  91.0481 14.98352489 70787,6950.123,96.106,574.162,569.815,0.0
56475.0,STARLINK-5541,PAYLOAD,2024-08-17 21:57:46,14.98336143,0.0002924,70.0014,118.4879,273.0791,87.0034,-1.8704e-05,-3.16e-06,0.0,0 STARLINK-5541,1 56475U 23064AD  24230.91512251 -.00000316  00000-0 -18704-4 0  9995,2 56475  70.0014 118.4879 0002924 273.0791  87.0034 14.98336143 70545,6950.174,96.107,574.071,570.007,0.0
56475.0,STARLINK-5541,PAYLOAD,2024-08-18 02:46:10,14.98338414,0.0002802,70.0017,117.9859,271.2876,88.7962,1.9929e-05,1.45e-06,0.0,0 STARLINK-5541,1 56475U 23064AD  24231.11540004  .00000145  00000-0  19929-4 0  9993,2 56475  70.0017 117.9859 0002802 271.2876  88.7962 14.98338414 70933,6950.167,96.106,573.979,570.084,0.0
56475.0,STARLINK-5541,PAYLOAD,2024-08-18 20:23:38,14.98341079,0.0003042,70.0019,116.134,264.8838,95.1974,0.00017553,2.003e-05,0.0,0 STARLINK-5541,1 56475U 23064AD  24231.84975538  .00002003  00000-0  17553-3 0  9992,2 56475  70.0019 116.1340 0003042 264.8838  95.1974 14.98341079 70682,6950.159,96.106,574.138,569.909,0.0
56475.0,STARLINK-5541,PAYLOAD,2024-08-19 02:48:10,14.98344953,0.0002979,70.0018,115.4607,266.9165,93.1653,0.00033734,3.936e-05,0.0,0 STARLINK-5541,1 56475U 23064AD  24232.11679322  .00003936  00000-0  33734-3 0  9990,2 56475  70.0018 115.4607 0002979 266.9165  93.1653 14.98344953 71084,6950.147,96.106,574.082,569.941,0.0
56475.0,STARLINK-5541,PAYLOAD,2024-08-19 09:12:43,14.98333993,0.0002728,70.0025,114.7873,266.2153,93.8695,4.0506e-05,3.9e-06,0.0,0 STARLINK-5541,1 56475U 23064AD  24232.38383691  .00000390  00000-0  40506-4 0  9997,2 56475  70.0025 114.7873 0002728 266.2153  93.8695 14.98333993 71121,6950.181,96.107,573.942,570.15,0.0
56475.0,STARLINK-5541,PAYLOAD,2024-08-20 01:14:04,14.98329732,0.0002733,70.0018,113.1041,268.7399,91.3447,-0.00010713,-1.371e-05,0.0,0 STARLINK-5541,1 56475U 23064AD  24233.05144020 -.00001371  00000-0 -10713-3 0  9991,2 56475  70.0018 113.1041 0002733 268.7399  91.3447 14.98329732 71223,6950.194,96.107,573.958,570.159,0.0
56475.0,STARLINK-5541,PAYLOAD,2024-08-21 01:16:04,14.98339029,0.0002801,70.0002,110.5792,261.0138,99.0704,8.6193e-05,9.36e-06,0.0,0 STARLINK-5541,1 56475U 23064AD  24234.05283337  .00000936  00000-0  86193-4 0  9997,2 56475  70.0002 110.5792 0002801 261.0138  99.0704 14.98339029 71370,6950.165,96.106,573.977,570.083,0.0
56475.0,STARLINK-5541,PAYLOAD,2024-08-21 18:53:33,14.98330202,0.0002961,69.9993,108.7264,269.6146,90.4674,0.00019468,2.231e-05,0.0,0 STARLINK-5541,1 56475U 23064AD  24234.78719803  .00002231  00000-0  19468-3 0  9999,2 56475  69.9993 108.7264 0002961 269.6146  90.4674 14.98330202 71486,6950.192,96.107,574.115,569.999,0.0
56475.0,STARLINK-5541,PAYLOAD,2024-08-21 20:29:41,14.98330165,0.0002965,69.9993,108.5581,269.5939,90.488,0.00019431,2.226e-05,0.0,0 STARLINK-5541,1 56475U 23064AD  24234.85395833  .00002226  00000-0  19431-3 0  9994,2 56475  69.9993 108.5581 0002965 269.5939  90.4880 14.98330165 71138,6950.192,96.107,574.118,569.997,0.0
